#dP2024  8  3  0  0  0.00000000      96 __u+U IGS20 FIT  IAC
## 2325 518400.00000000   900.00000000 60525 0.0000000000000
+  132   C01C02C03C04C05C06C07C08C09C10C11C12C13C14C16C19C20
+        C21C22C23C24C25C26C27C28C29C30C32C33C34C35C36C37C38
+        C39C40C41C42C43C44C45C59C60C62E02E03E04E05E06E07E08
+        E09E10E11E12E13E14E15E18E19E21E24E25E26E27E29E30E31
+        E33E34E36G01G02G03G04G05G06G07G08G09G10G11G12G13G14
+        G15G16G17G18G19G20G21G22G23G24G25G26G27G28G29G30G31
+        G32J02J03J04J07R01R02R03R04R05R06R07R08R09R10R11R12
+        R14R15R16R17R18R19R20R21R22R23R24R25R26  0  0  0  0
++        18 17 17 17 17  9 10 10  0 10  9  9  9  9  9  7  7
++         7  7  7  7  7  7  7  7  7  8  7  7  7  7  8  8  8
++         8  0  7  7  7  7  7  0 17  0  4  4  4  5  6  4  4
++         5  4  4  5  4  5  4  4  4  4  5  4  4  4  4  4  5
++         5  4  4  6  4  4  4  4  4  4  4  4  4  4  4  5  4
++         4  4  4  4  4  4  4  4  4  4  4  4  4  4  4  4  4
++         4 10 11 11 17  8  6  6  6  6 15  6  6  6 15  6  6
++         6  6  6  6  6  8  8  6  6 15  6  8  9  0  0  0  0
%c M  cc GPS ccc cccc cccc cccc cccc ccccc ccccc ccccc ccccc
%c cc cc ccc ccc cccc cccc cccc cccc ccccc ccccc ccccc ccccc
%f  0.0000000  0.000000000  0.00000000000  0.000000000000000
%f  0.0000000  0.000000000  0.00000000000  0.000000000000000
%i    0    0    0    0      0      0      0      0         0
%i    0    0    0    0      0      0      0      0         0
/* INFORMATION & ANALYSIS CENTER (IAC)            RAPID DATA
/* S/V CLOCKS ARE ALIGNED TO GNSS TIME                      
/* G:C1WC2W R:C1PC2P E:C1XC5X C:C2IC6I J:C1CC2S             
/* PCV:IGS20_2317 OL/AL:FES2004  NONE     YN ORB:CoN CLK:CoN
*  2024 08 03  5 15  0.00000000
PC01 -34329.830612  24449.356352   1165.033475    912.307102
PC02   4330.037506  41917.464020   1137.393955    902.857222
PC03 -14845.537686  39441.228814   1084.590967    666.469864
PC04 -39590.393854  14398.470690   1241.997753   -698.427759
PC05  21924.899867  36025.112646    513.400118   -485.642483
PC06 -19147.735152  33602.072598 -17044.716320    647.962960
PC07  -4079.353619  37068.520602 -19306.692190   -494.274449
PC08  -4604.096255  19662.307885  36982.330573   -383.164119
PC09      0.000000      0.000000      0.000000 999999.999999
PC10   2002.361555  39276.655378 -13992.802447   -107.561148
PC11  16936.463453 -20353.671131   8909.887022    693.830483
PC12  17378.879179  -2445.918502  21736.567387   -265.551806
PC13   2098.898309  22492.596330  35786.345351    438.272928
PC14  10993.223964 -11358.260108 -22999.422908    915.729522
PC16 -20637.289514  33295.942190 -15713.231796   -701.956654
PC19  -3347.682565  18874.919354  20282.866421   -922.665291
PC20 -16043.596423   3550.113858  22561.100322   -758.187039
PC21  20231.143868  15506.624379 -11318.554414   -948.113413
PC22  12089.088373  24364.526208   6158.953934     80.553306
PC23  -6335.703250 -15592.439161  22270.525338   -808.294302
PC24  27121.479266  -5384.685743   3856.033658    865.892983
PC25  14482.615603 -15126.984718  18446.228569    468.428254
PC26  23771.586022   6669.562233 -13053.217145   -328.871737
PC27 -14184.376965  -7536.720227 -22840.164718    349.576646
PC28  -3125.761377 -21789.970290 -17151.968135    269.758121
PC29 -11502.210451  25397.556494  -1118.913721    316.730266
PC30 -18312.240280  11774.673402 -17474.787228   -152.673270
PC32 -20365.128699 -15462.376848  11206.827731   -691.168058
PC33   3294.214229 -18875.546653 -20302.277758   -964.316095
PC34  18202.151703 -13413.103607  16334.756752    490.900900
PC35   3627.082603  22002.186540  16780.542472    296.968203
PC36 -14490.467251  14879.711903 -18605.057220    151.699249
PC37 -23583.681573  -7199.812463  13057.965989   -913.731332
PC38 -15687.164108  18595.603372  34445.856040    171.013794
PC39 -23902.265985  33728.483363  -8853.468166     -9.400455
PC40      0.000000      0.000000      0.000000 999999.999999
PC41 -11591.164557 -24405.397841  -6982.269751   -931.754912
PC42  16961.490646  -1829.360818 -22042.958297   -458.991239
PC43  12071.697901 -25069.766630   2024.498922     81.028634
PC44  14503.303642   7222.564053  22705.121828    551.947669
PC45   5797.733437  15578.534379 -22413.079233   -112.202440
PC59      0.000000      0.000000      0.000000 999999.999999
PC60   7309.024058  41486.785614   1727.198251     -0.342855
PC62      0.000000      0.000000      0.000000 999999.999999
PE02  22167.817453  -2875.339482  19410.256622    148.334714
PE03  15331.127146 -12035.840787 -22287.998183   -131.149059
PE04  -5441.697513  27836.333321   8458.065519      1.022155
PE05  15940.660562  10463.757434 -22637.476157   4771.694989
PE06   1066.966339  29566.139045   -964.003759    -11.472839
PE07  -7027.709004 -27164.309601   9455.797626   -134.531202
PE08   5953.518804 -27474.922737  -9296.112395   -313.050266
PE09   6917.366801  27185.298771  -9420.685459   -538.732619
PE10  -5379.605330  19425.479959  21662.030507   -645.479565
PE11   5835.019803  15136.735921  24744.217278   2169.277782
PE12 -14564.800249  20445.266506  15684.715200  -1150.776450
PE13  -5216.716451 -15382.854290 -24745.875494    -23.507539
PE14  -3896.017840 -31740.485019  -4129.252308    146.532741
PE15  15105.249704 -20386.822435 -15243.483834   -118.615260
PE18   1224.433408  23611.907337   1547.650261    389.533245
PE19 -15767.509573   9794.136332  23061.432928    394.255630
PE21 -26783.273010 -11999.687422  -3864.224668   -608.958903
PE24  15570.800988  20511.482510 -14616.752129   -909.330901
PE25  26712.982803  12271.372579   3472.542068      7.586164
PE26 -22491.490958  -1161.273823 -19203.944468    530.696064
PE27 -15804.877768 -20409.165725  14489.772354   -416.595045
PE29 -16157.257941 -10018.713275  22681.751906    -20.123522
PE30   4452.116686 -16695.376444  24028.844100   -572.403181
PE31  -4335.258047  16678.438112 -24054.201376    -31.337675
PE33 -26327.993351  13048.257687  -3520.288828     14.303938
PE34  26222.976693 -13407.540236   3037.477990   -126.276543
PE36  22106.558175   1499.146770  19624.629738   -263.821486
PG01  24646.903834   6539.293873   7632.180848    229.297247
PG02  10593.365701 -20040.235023 -13107.448052   -386.567552
PG03  -2425.057632 -16603.886383 -20783.563415    484.791777
PG04   1117.518336 -26312.053451  -2794.187724    416.624921
PG05 -14305.953531   8927.787334  20354.918547   -181.916690
PG06 -21530.818041   1853.842436 -15451.213694    122.487774
PG07  -7794.453519 -13639.773410  21925.582489    -58.102737
PG08   7380.490154 -21433.855336  13371.253171    300.643056
PG09  -7833.166638 -24018.883299   8016.671615    298.704588
PG10  24460.591297  10562.991803  -2071.882489    -83.182373
PG11 -23506.232255  11978.368568  -2742.345957   -715.601345
PG12  -1881.163157  16111.378159 -21317.769839   -527.369749
PG13 -13232.558900  14241.679227  17767.813168    668.526735
PG14 -23166.161433 -13176.601273   1334.088146    463.643504
PG15  -4461.826134  22557.521585  12624.119810    188.278503
PG16  18278.518481  -4166.323089  18650.420362   -219.050816
PG17 -13012.017090 -12813.282634 -18808.895122    663.786123
PG18   7759.253631  12748.436176  21982.582278   -642.802833
PG19 -14922.494752  -3724.500768 -21848.880376    519.349501
PG20 -22182.497026   3954.360233  14004.976126    372.083041
PG21  14663.347942 -19568.055052  -8519.412394    105.151274
PG22 -23778.097043  -9144.641763  -6534.727117    -46.997134
PG23  19066.104898  15918.916827   9724.284554    288.577728
PG24 -11195.674296  20813.632738 -12130.491667   -485.327778
PG25  10456.805308  18183.637474 -16781.594687    499.042500
PG26  25079.788937   2942.673275   8661.532379    107.995385
PG27  12944.309704 -11510.124261  19721.372089    -32.428666
PG28  20468.530276   -128.432443 -16936.780614   -357.376258
PG29   3257.458120  25777.946298   5115.523238   -586.207504
PG30 -17391.421610  -5655.610862  19497.402234   -346.728986
PG31  24103.039949  -8960.864023  -7634.647839   -226.229382
PG32  14384.801963  10710.270277 -19443.702002   -608.417782
PJ02 -25208.707121  16471.544954 -24852.145178     -0.688540
PJ03 -28731.967827  30849.809157   5163.117528     -1.551578
PJ04 -23746.977760  28686.103228  25598.394572     50.899466
PJ07 -25407.262381  33642.862479     23.054589      0.000399
PR01 -12079.016851   -350.635139  22462.584226     93.331568
PR02  -3105.072192  15644.599858  19970.437580    -23.955748
PR03   7808.447390  23550.955927   6094.834128    104.934915
PR04  13831.591880  18548.890096 -10729.528121    248.150950
PR05  12677.352186   3648.597874 -21829.682993    135.500951
PR06   1782.222526 -16702.579175 -19205.270440   -174.533772
PR07  -8162.378887 -23535.657631  -5329.677447     88.009665
PR08 -14110.443334 -18161.597699  11052.028817     -6.251972
PR09  14012.117879  -8876.665438  19370.412008    201.255139
PR10  -1728.517967 -11157.773868  22867.246624   -198.482860
PR11 -19564.661885  -8243.945558  14170.022771     16.142767
PR12 -25045.401454    245.837866  -4774.026606     43.188987
PR14   4373.395270  11270.190521 -22439.408448     26.759012
PR15  20659.957795   7852.332673 -12699.781291     77.240955
PR16  25059.530023   -255.355431   4663.321614     27.937847
PR17  -4474.829746  19140.603396  16231.931786    110.201924
PR18   7401.938905   7652.809065  23193.909405    155.147736
PR19  15479.500132  -5769.078310  19438.627490   -286.190137
PR20  16053.596157 -19771.932511   1107.954888   -117.092308
PR21   5113.171157 -19338.596159 -15853.349404   -122.828508
PR22  -8379.846460  -6991.698456 -23030.785920     76.945518
PR23 -16310.660651   8773.710972 -17546.089576   -128.691317
PR24 -14946.350550  20646.859918   -522.106963    -66.275347
PR25   4839.583922 -18988.466345 -16342.942583    -99.255620
PR26 -13969.568233 -19047.181487   9675.680991      7.649767
EOF
